FENGYUN 1C DEB          
1 36660U 99025DYE 17334.40124095  .00000356  00000-0  22846-3 0  9998
2 36660  98.8727  22.5289 0048506 275.8042  83.7600 14.08989695480547
